#aV2015  2  7  0  0  0.00000000     288 DD+AD WGS84 FIT  NGA
## 1830 518400.00000000   300.00000000 57060 0.0000000000000
+   31     1  2  3  4  5  6  7  8  9 10 11 12 13 14 15 16 17
+         18 19 20 21 22 23 24 25 27 28 29 30 31 32  0  0  0
+          0  0  0  0  0  0  0  0  0  0  0  0  0  0  0  0  0
+          0  0  0  0  0  0  0  0  0  0  0  0  0  0  0  0  0
+          0  0  0  0  0  0  0  0  0  0  0  0  0  0  0  0  0
++         2  2  2  2  2  2  2  2  2  2  2  2  2  2  2  2  2
++         2  2  2  2  2  2  2  2  2  2  2  2  2  2  0  0  0
++         0  0  0  0  0  0  0  0  0  0  0  0  0  0  0  0  0
++         0  0  0  0  0  0  0  0  0  0  0  0  0  0  0  0  0
++         0  0  0  0  0  0  0  0  0  0  0  0  0  0  0  0  0
%c cc cc ccc ccc cccc cccc cccc cccc ccccc ccccc ccccc ccccc
%c cc cc ccc ccc cccc cccc cccc cccc ccccc ccccc ccccc ccccc
%f  0.0000000  0.000000000  0.00000000000  0.000000000000000
%f  0.0000000  0.000000000  0.00000000000  0.000000000000000
%i    0    0    0    0      0      0      0      0         0
%i    0    0    0    0      0      0      0      0         0
/*      NGA, ST. LOUIS,MO.                                  
/*   EPHEMERIS COMPUTED FROM  1 DAYS OF DATA                
/*   EPOCHA SMOOTHER                                       
/* CCCCCCCCCCCCCCCCCCCCCCCCCCCCCCCCCCCCCCCCCCCCCCCCCCCCCCCCC
*  2015  2  7 19 20  0.00000000
P  1 -16318.487182  -1387.300330  20893.383338     -9.275893                    
V  1  -9486.491763 -24864.706909  -8871.137624      0.004429                    
P  2  14346.019108  21882.158920  -5505.841206    546.580222                    
V  2    316.446258   7929.228289  29967.222140      0.022817                    
P  3 -19927.750890   8236.187353  15543.748799    196.330987                    
V  3  10340.039905 -16900.626552  22173.435101      0.216279                    
P  4 -17674.002365 -12066.583685  15582.707460     -6.823577                    
V  4  -6001.959014 -19540.429634 -21243.495197     -0.005927                    
P  5  11037.169924  11097.488721 -21503.124691   -282.178752                    
V  5 -16629.373372  21578.112845   2783.976154      0.051254                    
P  6   5009.412674  25032.229820   7354.010028     75.052836                    
V  6  -6035.276150  -7592.218834  29910.444877      0.114864                    
P  7 -10492.130495  12332.534938 -20884.148246    438.343249                    
V  7 -10600.670267 -24620.790874  -9517.603405      0.032271                    
P  8 -10643.943329 -23880.912676  -6085.242270     17.538211                    
V  8   -931.229940  -7866.540117  30871.572060      0.001964                    
P  9 -19622.682969   8679.957762 -15669.091100    -79.881391                    
V  9 -19489.221711  -4429.933697  21954.265536     -0.117493                    
P 10  -5379.507777  22483.213956 -13068.722645   -162.296492                    
V 10 -12237.530999  11010.107280  25123.508471     -0.016814                    
P 11 -21112.472049  -5871.035712  14582.738778   -556.303996                    
V 11 -10506.039687 -16905.633561 -21114.184507     -0.025642                    
P 12  19060.997812  -4719.370395  17696.196681    267.567970                    
V 12 -13487.821655  18244.618004  19517.119378      0.029550                    
P 13  20134.038658  12914.473765 -11564.018799    -86.105741                    
V 13 -14555.737204  -1374.192371 -27350.420635     -0.034727                    
P 14    735.075110 -15290.778373  21944.649198     89.530201                    
V 14  26756.031577   5335.061278   2709.176439     -0.034964                    
P 15  26550.609718   2973.035865  -1072.137883   -230.943518                    
V 15  -1526.856634   3271.716403 -30902.116532     -0.022163                    
P 16  -9701.624255 -11036.964274 -22164.280477   -158.311015                    
V 16  18498.183722 -20942.655124   2700.508936      0.032991                    
P 17  -3071.746437  14813.329132  22116.918110   -154.592836                    
V 17 -26939.236756  -4779.799917   -761.093606     -0.021540                    
P 18  15174.943505 -21589.944076    698.472391    377.917205                    
V 18   3597.754033   2208.801131 -31128.204966      0.027528                    
P 19 -24905.734451  -8851.975003  -4644.226363   -499.696675                    
V 19   5927.748189   -848.781318 -30905.736104     -0.014172                    
P 20 -13543.296140  22774.171576  -1529.036767    287.246641                    
V 20  -4251.400733   -704.728958  30939.064078      0.041194                    
P 21   6993.618843 -17343.329288 -18030.828036   -414.180759                    
V 21  11866.120638  21583.640181 -15973.322985     -0.041111                    
P 22   6165.501726 -23130.502133  11541.004291    315.813521                    
V 22  11343.514969  -9628.776260 -26018.679254      0.039688                    
P 23 -25840.378009   1446.919056  -6761.589264    -87.189996                    
V 23  -8238.551214  -3828.403235  29651.485274     -0.026199                    
P 24  17220.883313   4571.896731  19713.621993    -43.084277                    
V 24   8942.151103  23448.596836 -13092.813260     -0.006912                    
P 25  19153.346308 -16445.370380   7912.461504     -2.109208                    
V 25  -4339.902432   9486.308811  30068.100956     -0.027006                    
P 27 -18800.239388 -12270.413335 -14274.224758     49.844237                    
V 27  18165.550147    286.476055 -24094.376623      0.026767                    
P 28 -11526.248532  22314.373923   9105.451063    417.916173                    
V 28  -8319.893428   6914.833790 -29604.869327      0.025851                    
P 29  22267.742395  -5263.402599 -13418.026508    590.735556                    
V 29  16456.769366   5009.515044  25323.919240      0.023114                    
P 30  -4130.492281  21387.311331 -15172.899019    -85.345931                    
V 30  -8115.765683 -17620.397487 -22682.011706      0.010447                    
P 31  -6136.417450 -25217.557541   4852.592306    323.815509                    
V 31   4517.258576   4731.679521  31527.151586     -0.008004                    
P 32 -14473.336118  -6684.534456  21165.205936   -229.157780                    
V 32  17440.804725 -20661.716704   5940.523927      0.090400                    
EOF
